OBJECT_NAME,OBJECT_ID,EPOCH,MEAN_MOTION,ECCENTRICITY,INCLINATION,RA_OF_ASC_NODE,ARG_OF_PERICENTER,MEAN_ANOMALY,EPHEMERIS_TYPE,CLASSIFICATION_TYPE,NORAD_CAT_ID,ELEMENT_SET_NO,REV_AT_EPOCH,BSTAR,MEAN_MOTION_DOT,MEAN_MOTION_DDOT
STARLINK-37695,2026-154F,2026-07-12T20:00:01.999008,15.92996866,.0000927,53.1594,304.9008,57.3911,120.9347,0,U,69824,999,228,-.13711E-2,-.494324E-2,.88879E-4
STARLINK-37690,2026-154G,2026-07-12T20:00:01.999008,15.93241338,.0000933,53.1593,304.8955,55.2009,125.7045,0,U,69825,999,228,-.46928E-2,-.1692518E-1,.80842E-3
STARLINK-37710,2026-154H,2026-07-12T20:00:01.999008,15.93371365,.0000999,53.1593,304.8893,61.4646,122.3884,0,U,69826,999,228,-.46898E-2,-.1702938E-1,.81867E-3
STARLINK-38031,2026-154J,2026-07-12T20:00:01.999008,15.93489743,.0000999,53.1594,304.8833,55.2837,131.2928,0,U,69827,999,228,-.46399E-2,-.1695457E-1,.81302E-3
STARLINK-38001,2026-154K,2026-07-12T20:00:01.999008,15.93613396,.0000986,53.1593,304.8779,60.3515,128.9003,0,U,69828,999,228,-.45988E-2,-.1691508E-1,.81054E-3
STARLINK-37622,2026-154L,2026-07-12T20:00:01.999008,15.93730009,.0000923,53.1593,304.8723,60.5153,131.4408,0,U,69829,999,228,-.45342E-2,-.1678248E-1,.79981E-3
STARLINK-37621,2026-154M,2026-07-12T20:00:01.999008,15.93852788,.0000995,53.1593,304.8672,70.8222,123.6122,0,U,69830,999,228,-.44816E-2,-.1669728E-1,.79333E-3
STARLINK-37918,2026-154N,2026-07-12T20:00:01.999008,15.93980251,.000101,53.1593,304.8621,62.0865,134.7731,0,U,69831,999,228,-.4439E-2,-.1665125E-1,.79033E-3
STARLINK-37887,2026-154P,2026-07-12T20:00:01.999008,15.94107633,.0000913,53.1593,304.8572,55.7456,143.5125,0,U,69832,999,228,-.44036E-2,-.1663087E-1,.78956E-3
STARLINK-37624,2026-154Q,2026-07-12T20:00:01.999008,15.94217280,.0000856,53.1592,304.8510,61.4410,140.8162,0,U,69833,999,229,-.43556E-2,-.1654661E-1,.78308E-3
STARLINK-37769,2026-154R,2026-07-12T20:00:01.999008,15.94326766,.0001006,53.1592,304.8451,65.5998,139.4949,0,U,69834,999,229,-.42975E-2,-.1642322E-1,.77323E-3
STARLINK-37247,2026-154S,2026-07-12T20:00:01.999008,15.94448194,.0000876,53.1592,304.8395,57.2087,150.6219,0,U,69835,999,239,-.42833E-2,-.1647445E-1,.77862E-3
STARLINK-37569,2026-154T,2026-07-12T20:00:01.999008,15.94581079,.0000854,53.1591,304.8346,58.6871,151.5030,0,U,69836,999,229,-.42788E-2,-.1657326E-1,.7883E-3
STARLINK-37587,2026-154U,2026-07-12T20:00:01.999008,15.94693035,.0000988,53.1591,304.8280,55.8745,157.4765,0,U,69837,999,226,-.42913E-2,-.1671948E-1,.80206E-3
STARLINK-37590,2026-154V,2026-07-12T20:00:01.999008,15.94812424,.0000983,53.1591,304.8227,57.6695,158.2741,0,U,69838,999,212,-.42566E-2,-.1669131E-1,.80055E-3
STARLINK-37589,2026-154W,2026-07-12T20:00:01.999008,15.94920807,.0000819,53.1589,304.8169,59.3953,159.3636,0,U,69839,999,226,-.42019E-2,-.1657402E-1,.79109E-3
STARLINK-37487,2026-154X,2026-07-12T20:00:01.999008,16.01176507,.0000669,53.1581,304.6276,47.0271,262.0079,0,U,69840,999,226,-.23226E-2,-.1303084E-1,.54406E-3
STARLINK-37433,2026-154Y,2026-07-12T20:00:01.999008,16.01370502,.000071,53.1581,304.6163,48.7226,265.7135,0,U,69841,999,239,-.2459E-2,-.1394027E-1,.6167E-3
STARLINK-37588,2026-154Z,2026-07-12T20:00:01.999008,16.01568975,.0000715,53.1579,304.6041,48.4925,271.7678,0,U,69842,999,229,-.26233E-2,-.1502979E-1,.70945E-3
STARLINK-37579,2026-154AA,2026-07-12T20:00:01.999008,16.01763275,.0000743,53.1580,304.5874,49.8340,278.3333,0,U,69843,999,229,-.26665E-2,-.1544566E-1,.74759E-3
STARLINK-37584,2026-154AB,2026-07-12T20:00:01.999008,16.01885845,.000072,53.1580,304.5773,50.6509,282.2145,0,U,69844,999,229,-.26661E-2,-.1555324E-1,.75825E-3
STARLINK-37606,2026-154AC,2026-07-12T20:00:01.999008,16.02037717,.0000728,53.1577,304.5653,50.9003,287.6751,0,U,69845,999,229,-.26835E-2,-.1579165E-1,.78115E-3
STARLINK-37603,2026-154AD,2026-07-12T20:00:01.999008,16.02214234,.0000777,53.1579,304.5506,48.5179,296.9745,0,U,69846,999,229,-.26875E-2,-.159774E-1,.79979E-3
STARLINK-37595,2026-154AE,2026-07-12T20:00:01.999008,16.02343166,.0000746,53.1577,304.5403,48.0872,302.1604,0,U,69847,999,229,-.27199E-2,-.1628882E-1,.83005E-3
